OBJECT_NAME,OBJECT_ID,EPOCH,MEAN_MOTION,ECCENTRICITY,INCLINATION,RA_OF_ASC_NODE,ARG_OF_PERICENTER,MEAN_ANOMALY,EPHEMERIS_TYPE,CLASSIFICATION_TYPE,NORAD_CAT_ID,ELEMENT_SET_NO,REV_AT_EPOCH,BSTAR,MEAN_MOTION_DOT,MEAN_MOTION_DDOT
STARLINK-5932,2023-037AF,2026-06-17T00:48:48.604896,14.98328475,.0002921,69.9999,33.8609,269.2422,90.8402,0,U,55943,999,17886,.39024E-4,.373E-5,0
STARLINK-5926,2023-037AG,2026-06-17T00:42:48.269376,14.98323871,.0003066,69.9999,33.8550,265.0646,95.0163,0,U,55944,999,17886,.66009E-4,.695E-5,0
STARLINK-5925,2023-037AH,2026-06-17T00:55:03.578304,14.98330668,.0002979,69.9997,33.8859,269.8691,90.2126,0,U,55945,999,17886,-.23935E-5,-.122E-5,0
STARLINK-5857,2023-037AJ,2026-06-17T00:54:49.341312,14.98330667,.0002942,69.9996,33.8850,268.3042,91.7780,0,U,55946,999,17885,.21962E-4,.169E-5,0
STARLINK-5900,2023-037AL,2026-06-16T23:36:25.471296,14.98329829,.0002852,70.0003,14.2156,271.0828,89.0004,0,U,55948,999,17934,.59457E-4,.617E-5,0
STARLINK-5899,2023-037AM,2026-06-16T23:48:25.070112,14.98331169,.0002771,70.0000,14.2458,264.0278,96.0565,0,U,55949,999,17934,.29101E-4,.254E-5,0
STARLINK-5911,2023-037AN,2026-06-16T23:30:23.039712,14.98331427,.0002986,70.0003,14.2014,268.7516,91.3301,0,U,55950,999,17934,.27599E-4,.236E-5,0
STARLINK-5908,2023-037AP,2026-06-17T00:30:46.450944,14.98332207,.000306,69.9997,33.8262,272.1823,87.8985,0,U,55951,999,17886,.34816E-4,.322E-5,0
STARLINK-5893,2023-037AQ,2026-06-16T23:36:38.369952,14.98328664,.0002934,70.0002,14.2171,268.9587,91.1236,0,U,55952,999,17934,-.62879E-5,-.168E-5,0
STARLINK-5892,2023-037AS,2026-06-16T22:54:19.188864,14.98331089,.0002965,69.9995,14.1141,267.0062,93.0757,0,U,55954,999,17934,.10878E-4,.37E-6,0
STARLINK-5878,2023-037AT,2026-06-16T23:18:22.233888,14.98328561,.0002865,69.9997,14.1720,267.9408,92.1423,0,U,55955,999,17934,-.27624E-4,-.423E-5,0
STARLINK-5883,2023-037AU,2026-06-17T00:18:27.439776,14.98319972,.0002868,69.9995,13.9161,273.0113,87.0717,0,U,55956,999,17935,.61358E-4,.639E-5,0
STARLINK-5884,2023-037AV,2026-06-16T23:24:22.515840,14.98330104,.0003049,69.9998,14.1862,268.3900,91.6910,0,U,55957,999,17934,.23566E-4,.188E-5,0
STARLINK-5928,2023-037AW,2026-06-16T23:12:21.220128,14.98329645,.0002968,69.9998,14.1583,268.8901,91.1918,0,U,55958,999,17934,-.14184E-4,-.262E-5,0
STARLINK-5929,2023-037AX,2026-06-16T23:06:20.164032,14.98325978,.0003007,69.9998,14.1428,268.7692,91.3123,0,U,55959,999,17934,-.95132E-4,-.1228E-4,0
STARLINK-5938,2023-037AY,2026-06-16T23:24:36.798624,14.98328858,.0003023,70.0000,14.1687,268.4676,91.6137,0,U,55960,999,17934,.11419E-4,.43E-6,0
STARLINK-5933,2023-037AZ,2026-06-17T10:01:15.875040,14.98319016,.0002914,69.9995,12.9203,267.7099,92.3726,0,U,55961,999,17941,.49629E-4,.499E-5,0
STARLINK-5906,2023-037BA,2026-06-16T23:42:24.801120,14.98328438,.0002996,70.0001,14.2251,269.1129,90.9687,0,U,55962,999,17934,.70691E-5,-.9E-7,0
STARLINK-5924,2023-037BB,2026-06-16T23:00:19.730880,14.98332326,.0002838,69.9995,14.1289,269.7301,90.3532,0,U,55963,999,17934,.12538E-4,.57E-6,0
STARLINK-5895,2023-037BC,2026-06-16T23:14:44.397024,15.10521746,.0004333,69.9963,6.1022,198.4115,161.6894,0,U,55964,999,17954,.10387E-2,.17097E-3,0
STARLINK-5894,2023-037BD,2026-06-17T00:12:25.282944,14.98331832,.0002923,69.9995,13.9010,269.0386,91.0439,0,U,55965,999,17935,.1335E-4,.66E-6,0
STARLINK-5905,2023-042A,2026-06-16T20:44:01.078368,15.27563642,.0001058,43.0001,219.7877,285.3804,74.6930,0,U,55986,999,17885,-.68473E-4,-.2145E-4,0
STARLINK-5915,2023-042B,2026-06-16T10:49:28.141824,15.27573071,.00012073,42.9970,221.8629,274.6929,85.3784,0,U,55987,999,17797,-.4813082E-5,-.394E-5,0
STARLINK-5916,2023-042C,2026-06-15T10:56:16.214208,15.27575644,.00013201,43.0015,231.5675,265.7117,94.3584,0,U,55988,999,17777,.19873103E-4,.285E-5,0
STARLINK-5947,2023-042D,2026-06-16T20:08:52.581408,15.27563321,.0001086,43.0008,219.6224,271.7431,88.3296,0,U,55989,999,17803,-.5247E-4,-.1705E-4,0
STARLINK-5946,2023-042E,2026-06-16T19:54:01.810368,15.27540474,.0002658,42.9908,219.5403,279.8081,80.2470,0,U,55990,999,17803,.44189E-3,.11903E-3,0
STARLINK-5948,2023-042F,2026-06-16T20:11:24.833760,15.27575831,.000129,43.0013,216.2254,284.4906,75.5803,0,U,55991,999,17807,.7232E-5,-.63E-6,0
STARLINK-5969,2023-042H,2026-06-16T20:03:18.099360,15.27576692,.0001274,42.9991,219.5940,266.4423,93.6282,0,U,55993,999,17803,.12475E-4,.81E-6,0
STARLINK-5956,2023-042J,2026-06-16T20:19:57.198720,15.27621741,.0002295,43.0047,219.6794,289.2295,70.8308,0,U,55994,999,17803,-.25073E-3,-.7165E-4,0
STARLINK-5903,2023-042L,2026-06-15T10:49:22.181088,15.27575472,.00005189,43.0044,227.2601,258.8493,101.2301,0,U,55996,999,17781,.37424E-6,-.251E-5,0
STARLINK-5902,2023-042N,2026-06-16T19:52:11.918208,15.27577689,.0000636,43.0119,219.5283,229.7467,130.3330,0,U,55998,999,17803,-.19955E-4,-.811E-5,0
STARLINK-5901,2023-042P,2026-06-16T11:06:07.032096,15.27577034,.00012403,43.0020,221.9474,284.4549,75.6165,0,U,55999,999,17797,.24005285E-4,.398E-5,0
STARLINK-5910,2023-042Q,2026-06-16T20:06:59.947776,15.27576029,.0001214,43.0048,219.5994,274.1465,85.9248,0,U,56000,999,17803,-.56395E-4,-.1813E-4,0
STARLINK-5944,2023-042R,2026-06-16T10:34:11.667648,15.27564569,.00014405,43.0098,226.0509,275.7229,84.3458,0,U,56001,999,17792,-.27026023E-4,-.1006E-4,0
STARLINK-5799,2023-042S,2026-06-16T20:01:26.799744,15.27577384,.0001314,42.9993,219.5710,267.3542,92.7159,0,U,56002,999,17803,.68297E-5,-.74E-6,0
STARLINK-5789,2023-042T,2026-06-16T20:42:10.115712,15.27571926,.0001531,43.0012,219.7834,318.3517,41.7218,0,U,56003,999,17803,-.85284E-5,-.497E-5,0
STARLINK-5787,2023-042U,2026-06-16T20:24:47.710080,15.27576469,.0001168,43.0004,223.1091,269.7833,90.2885,0,U,56004,999,17799,.1077E-4,.34E-6,0
STARLINK-5801,2023-042V,2026-06-15T10:50:43.244160,15.27578698,.00020552,43.0024,231.5264,264.4020,95.6598,0,U,56005,999,17777,-.79039105E-4,-.2437E-4,0
STARLINK-5794,2023-042W,2026-06-17T12:00:02.998944,15.27566455,.0001612,42.9994,223.5702,285.7063,108.7328,0,U,56006,999,581,.68862E-3,.18728E-3,0
STARLINK-5806,2023-042X,2026-06-16T20:12:34.296768,15.27561675,.0001141,43.0007,219.6297,267.1922,92.8799,0,U,56007,999,17803,.50593E-4,.113E-4,0
STARLINK-5803,2023-042Y,2026-06-16T19:57:44.790624,15.27576945,.0001203,42.9988,219.5456,267.3514,92.7200,0,U,56008,999,17802,.17339E-4,.215E-5,0
STARLINK-5964,2023-042Z,2026-06-16T10:50:36.074688,15.27578171,.00013962,42.9987,225.2763,281.2133,78.8562,0,U,56009,999,17793,-.1518839E-5,-.304E-5,0
STARLINK-5968,2023-042AA,2026-06-16T20:18:06.075360,15.27576692,.0001308,43.0007,219.6555,273.8429,86.2273,0,U,56010,999,17803,.18212E-4,.239E-5,0
STARLINK-5936,2023-042AB,2026-06-16T09:38:14.121312,15.27577897,.00012081,43.0000,207.6349,265.0461,95.0253,0,U,56011,999,17813,.17806758E-4,.228E-5,0
STARLINK-5940,2023-042AC,2026-06-16T09:12:19.996128,15.27576448,.00014144,43.0010,207.5039,269.0993,90.9696,0,U,56012,999,17813,.15876341E-4,.175E-5,0
STARLINK-5941,2023-042AD,2026-06-16T20:32:54.265632,15.27576309,.0001436,43.0029,219.7307,289.7673,70.3024,0,U,56013,999,17803,.17418E-4,.217E-5,0
STARLINK-5942,2023-042AE,2026-06-16T19:08:43.611072,15.27576458,.0001289,43.0010,205.4501,268.1022,91.9682,0,U,56014,999,17819,.32653E-4,.636E-5,0
STARLINK-5939,2023-042AF,2026-06-16T09:23:26.840832,15.27581232,.00012266,43.0032,207.5640,259.5717,100.4997,0,U,56015,999,17813,.45404574E-4,.988E-5,0
STARLINK-5943,2023-042AG,2026-06-16T19:51:16.966080,15.27578309,.0001616,43.0026,205.6584,291.3931,68.6748,0,U,56016,999,17819,.23687E-4,.39E-5,0
STARLINK-5934,2023-042AH,2026-06-16T10:04:09.249600,15.27567707,.0001393,42.9953,207.7657,290.1864,69.8837,0,U,56017,999,17813,.3109E-4,.593E-5,0
STARLINK-5945,2023-042AJ,2026-06-16T19:45:43.946784,15.27576950,.000141,43.0023,205.6311,285.4820,74.5876,0,U,56018,999,17819,.11934E-4,.66E-6,0
STARLINK-5949,2023-042AK,2026-06-16T19:19:49.611648,15.27575357,.0001045,43.0000,205.5038,276.1215,83.9517,0,U,56019,999,17819,.16994E-4,.206E-5,0
STARLINK-5912,2023-042AL,2026-06-16T19:40:11.489088,15.27571488,.0001272,43.0045,205.6066,268.5446,91.5260,0,U,56020,999,17819,.11705E-4,.6E-6,0
STARLINK-5907,2023-042AM,2026-06-16T19:34:38.891424,15.27576808,.000159,43.0067,205.5794,6.2409,353.8462,0,U,56021,999,17819,.28805E-4,.53E-5,0
STARLINK-5783,2023-042AN,2026-06-15T09:38:08.116512,15.27575728,.00016984,43.0017,213.0275,267.7653,92.3004,0,U,56022,999,17798,.8717401E-5,-.22E-6,0
STARLINK-5771,2023-042AP,2026-06-16T20:00:31.845024,15.27584623,.0001619,43.0027,205.7045,271.3885,88.6782,0,U,56023,999,17819,.18559E-4,.249E-5,0
STARLINK-5772,2023-042AQ,2026-06-16T09:27:08.018784,15.27575306,.0001253,42.9983,207.5677,270.4092,89.6616,0,U,56024,999,17813,.7634476E-5,-.52E-6,0
STARLINK-5766,2023-042AR,2026-06-16T19:58:42.364992,15.27573106,.0001489,42.9987,205.6940,271.2125,88.8556,0,U,56025,999,17819,.1173E-3,.2966E-4,0
STARLINK-5770,2023-042AS,2026-06-16T09:16:01.770240,15.27580401,.00013458,42.9978,207.5160,263.4728,96.5970,0,U,56026,999,17812,.3374277E-4,.667E-5,0
STARLINK-5777,2023-042AT,2026-06-16T09:08:37.809024,15.27578921,.00016235,43.0015,207.4781,264.5670,95.4997,0,U,56027,999,17813,.31380665E-4,.601E-5,0
STARLINK-5779,2023-042AU,2026-06-16T19:06:52.396128,15.27576282,.0001301,43.0011,205.4280,273.9845,86.0858,0,U,56028,999,17819,.23612E-4,.388E-5,0
STARLINK-5774,2023-042AV,2026-06-16T09:21:36.025920,15.27566887,.00013594,42.9991,207.5391,260.3352,99.7346,0,U,56029,999,17813,-.24083276E-4,-.924E-5,0
STARLINK-5781,2023-042AW,2026-06-16T19:12:25.895808,15.27567690,.000135,43.0012,205.4533,271.4721,88.5976,0,U,56030,999,17819,.36773E-4,.75E-5,0
STARLINK-5785,2023-042AX,2026-06-16T18:55:46.963200,15.27585225,.000169,42.9964,205.3723,277.5392,82.5268,0,U,56031,999,17819,.7935E-4,.1922E-4,0
STARLINK-5786,2023-042AY,2026-06-16T19:32:46.916160,15.27574406,.0000954,43.0024,205.5628,265.6833,94.3909,0,U,56032,999,17819,.22943E-4,.369E-5,0
